{
  "type": "FeatureCollection",
  "features": [
    {
      "type": "Feature",
      "properties": {
        "norad_id": 44333,
        "name": "AT&T T-16",
        "group": "intelsat",
        "lat": 0.031075114177702694,
        "lon": 152.5779003717542,
        "alt_km": 35780.416512237935,
        "timestamp": "2025-12-27T10:28:58.458192+00:00",
        "meta_object_name": "AT&T T-16",
        "meta_object_id": "2019-034A",
        "meta_epoch": "2025-12-26T09:24:01.437984",
        "meta_mean_motion": 1.00280007,
        "meta_eccentricity": 9.59e-05,
        "meta_inclination": 0.0209,
        "meta_ra_of_asc_node": 69.0211,
        "meta_arg_of_pericenter": 116.5883,
        "meta_mean_anomaly": 309.683,
        "meta_ephemeris_type": 0,
        "meta_classification_type": "U",
        "meta_norad_cat_id": 44333,
        "meta_element_set_no": 999,
        "meta_rev_at_epoch": 2390,
        "meta_bstar": 0,
        "meta_mean_motion_dot": -9.5e-07,
        "meta_mean_motion_ddot": 0,
        "tle_line1": "1 44333U 19034A   25360.39168331 -.00000095  00000+0  00000+0 0  9997",
        "tle_line2": "2 44333   0.0209  69.0211 0000959 116.5883 309.6830  1.00280007 23905"
      },
      "geometry": {
        "type": "Point",
        "coordinates": [
          152.5779003717542,
          0.031075114177702694
        ]
      }
    },
    {
      "type": "Feature",
      "properties": {
        "norad_id": 44476,
        "name": "INTELSAT 39 (IS-39)",
        "group": "intelsat",
        "lat": -0.03248705677916445,
        "lon": -44.65659878167947,
        "alt_km": 35789.998465939076,
        "timestamp": "2025-12-27T10:28:58.458203+00:00",
        "meta_object_name": "INTELSAT 39 (IS-39)",
        "meta_object_id": "2019-049B",
        "meta_epoch": "2025-12-27T03:01:28.036416",
        "meta_mean_motion": 1.00270114,
        "meta_eccentricity": 8.88e-05,
        "meta_inclination": 0.0212,
        "meta_ra_of_asc_node": 10.4132,
        "meta_arg_of_pericenter": 147.1518,
        "meta_mean_anomaly": 45.6007,
        "meta_ephemeris_type": 0,
        "meta_classification_type": "U",
        "meta_norad_cat_id": 44476,
        "meta_element_set_no": 999,
        "meta_rev_at_epoch": 2340,
        "meta_bstar": 0,
        "meta_mean_motion_dot": 0,
        "meta_mean_motion_ddot": 0,
        "tle_line1": "1 44476U 19049B   25361.12601894  .00000000  00000+0  00000+0 0  9994",
        "tle_line2": "2 44476   0.0212  10.4132 0000888 147.1518  45.6007  1.00270114 23401"
      },
      "geometry": {
        "type": "Point",
        "coordinates": [
          -44.65659878167947,
          -0.03248705677916445
        ]
      }
    },
    {
      "type": "Feature",
      "properties": {
        "norad_id": 46114,
        "name": "GALAXY 30 (G-30)",
        "group": "intelsat",
        "lat": 0.016438923266341814,
        "lon": 128.38413375799553,
        "alt_km": 35794.543674170345,
        "timestamp": "2025-12-27T10:28:58.458215+00:00",
        "meta_object_name": "GALAXY 30 (G-30)",
        "meta_object_id": "2020-056C",
        "meta_epoch": "2025-12-27T02:08:10.640256",
        "meta_mean_motion": 1.00271233,
        "meta_eccentricity": 0.0002329,
        "meta_inclination": 0.001,
        "meta_ra_of_asc_node": 1.8662,
        "meta_arg_of_pericenter": 274.1982,
        "meta_mean_anomaly": 86.8,
        "meta_ephemeris_type": 0,
        "meta_classification_type": "U",
        "meta_norad_cat_id": 46114,
        "meta_element_set_no": 999,
        "meta_rev_at_epoch": 1956,
        "meta_bstar": 0,
        "meta_mean_motion_dot": 5.9e-07,
        "meta_mean_motion_ddot": 0,
        "tle_line1": "1 46114U 20056C   25361.08901204  .00000059  00000+0  00000+0 0  9992",
        "tle_line2": "2 46114   0.0010   1.8662 0002329 274.1982  86.8000  1.00271233 19563"
      },
      "geometry": {
        "type": "Point",
        "coordinates": [
          128.38413375799553,
          0.016438923266341814
        ]
      }
    },
    {
      "type": "Feature",
      "properties": {
        "norad_id": 54026,
        "name": "GALAXY 33 (G-33)",
        "group": "intelsat",
        "lat": 0.029709270564854704,
        "lon": 120.39320564282212,
        "alt_km": 35792.979652254435,
        "timestamp": "2025-12-27T10:28:58.458227+00:00",
        "meta_object_name": "GALAXY 33 (G-33)",
        "meta_object_id": "2022-128A",
        "meta_epoch": "2025-12-27T03:05:05.659872",
        "meta_mean_motion": 1.00271469,
        "meta_eccentricity": 0.0001835,
        "meta_inclination": 0.0166,
        "meta_ra_of_asc_node": 354.2263,
        "meta_arg_of_pericenter": 277.8367,
        "meta_mean_anomaly": 97.0741,
        "meta_ephemeris_type": 0,
        "meta_classification_type": "U",
        "meta_norad_cat_id": 54026,
        "meta_element_set_no": 999,
        "meta_rev_at_epoch": 1201,
        "meta_bstar": 0,
        "meta_mean_motion_dot": 1.01e-06,
        "meta_mean_motion_ddot": 0,
        "tle_line1": "1 54026U 22128A   25361.12853773  .00000101  00000+0  00000+0 0  9995",
        "tle_line2": "2 54026   0.0166 354.2263 0001835 277.8367  97.0741  1.00271469 12016"
      },
      "geometry": {
        "type": "Point",
        "coordinates": [
          120.39320564282212,
          0.029709270564854704
        ]
      }
    },
    {
      "type": "Feature",
      "properties": {
        "norad_id": 54027,
        "name": "GALAXY 34 (G-34)",
        "group": "intelsat",
        "lat": 0.03972638373556699,
        "lon": 124.43485645927734,
        "alt_km": 35792.59533115808,
        "timestamp": "2025-12-27T10:28:58.458238+00:00",
        "meta_object_name": "GALAXY 34 (G-34)",
        "meta_object_id": "2022-128B",
        "meta_epoch": "2025-12-27T02:52:15.606048",
        "meta_mean_motion": 1.00270541,
        "meta_eccentricity": 0.0001792,
        "meta_inclination": 0.0234,
        "meta_ra_of_asc_node": 18.5262,
        "meta_arg_of_pericenter": 250.5921,
        "meta_mean_anomaly": 100.846,
        "meta_ephemeris_type": 0,
        "meta_classification_type": "U",
        "meta_norad_cat_id": 54027,
        "meta_element_set_no": 999,
        "meta_rev_at_epoch": 1218,
        "meta_bstar": 0,
        "meta_mean_motion_dot": 0,
        "meta_mean_motion_ddot": 0,
        "tle_line1": "1 54027U 22128B   25361.11962507  .00000000  00000+0  00000+0 0  9999",
        "tle_line2": "2 54027   0.0234  18.5262 0001792 250.5921 100.8460  1.00270541 12187"
      },
      "geometry": {
        "type": "Point",
        "coordinates": [
          124.43485645927734,
          0.03972638373556699
        ]
      }
    },
    {
      "type": "Feature",
      "properties": {
        "norad_id": 54243,
        "name": "GALAXY 31 (G-31)",
        "group": "intelsat",
        "lat": 0.02503330780804492,
        "lon": 132.38071601332197,
        "alt_km": 35793.39996519659,
        "timestamp": "2025-12-27T10:28:58.458250+00:00",
        "meta_object_name": "GALAXY 31 (G-31)",
        "meta_object_id": "2022-153A",
        "meta_epoch": "2025-12-27T02:09:18.032256",
        "meta_mean_motion": 1.00270516,
        "meta_eccentricity": 0.0001852,
        "meta_inclination": 0.0099,
        "meta_ra_of_asc_node": 16.8089,
        "meta_arg_of_pericenter": 268.6382,
        "meta_mean_anomaly": 81.6917,
        "meta_ephemeris_type": 0,
        "meta_classification_type": "U",
        "meta_norad_cat_id": 54243,
        "meta_element_set_no": 999,
        "meta_rev_at_epoch": 540,
        "meta_bstar": 0,
        "meta_mean_motion_dot": 0,
        "meta_mean_motion_ddot": 0,
        "tle_line1": "1 54243U 22153A   25361.08979204  .00000000  00000+0  00000+0 0  9995",
        "tle_line2": "2 54243   0.0099  16.8089 0001852 268.6382  81.6917  1.00270516  5404"
      },
      "geometry": {
        "type": "Point",
        "coordinates": [
          132.38071601332197,
          0.02503330780804492
        ]
      }
    },
    {
      "type": "Feature",
      "properties": {
        "norad_id": 54244,
        "name": "GALAXY 32 (G-32)",
        "group": "intelsat",
        "lat": 0.01637974969199542,
        "lon": 162.39683217916104,
        "alt_km": 35793.891874767236,
        "timestamp": "2025-12-27T10:28:58.458261+00:00",
        "meta_object_name": "GALAXY 32 (G-32)",
        "meta_object_id": "2022-153B",
        "meta_epoch": "2025-12-27T02:25:08.444352",
        "meta_mean_motion": 1.00271678,
        "meta_eccentricity": 0.0002089,
        "meta_inclination": 0.0102,
        "meta_ra_of_asc_node": 24.2053,
        "meta_arg_of_pericenter": 290.1445,
        "meta_mean_anomaly": 86.7763,
        "meta_ephemeris_type": 0,
        "meta_classification_type": "U",
        "meta_norad_cat_id": 54244,
        "meta_element_set_no": 999,
        "meta_rev_at_epoch": 1141,
        "meta_bstar": 0,
        "meta_mean_motion_dot": -1.52e-06,
        "meta_mean_motion_ddot": 0,
        "tle_line1": "1 54244U 22153B   25361.10079218 -.00000152  00000+0  00000+0 0  9994",
        "tle_line2": "2 54244   0.0102  24.2053 0002089 290.1445  86.7763  1.00271678 11410"
      },
      "geometry": {
        "type": "Point",
        "coordinates": [
          162.39683217916104,
          0.01637974969199542
        ]
      }
    }
  ]
}